ONEWEB-0116             
1 48046U 21025E   25092.36307765 -.00000220  00000+0 -63665-3 0  9991
2 48046  87.8957  47.8092 0002055  78.9566 281.1794 13.13471247195786
ONEWEB-0150             
1 48047U 21025F   25092.56789947  .00000174  00000+0  44029-3 0  9999
2 48047  87.8949  47.7708 0001768  84.1376 275.9954 13.13470491195700
ONEWEB-0107             
1 48048U 21025G   25092.56959743  .00000203  00000+0  52144-3 0  9993
2 48048  87.8949  47.7683 0001509  80.2396 279.8904 13.13470552195688
ONEWEB-0101             
1 48049U 21025H   25092.37999372  .00000076  00000+0  17433-3 0  9995
2 48049  87.8954  47.8394 0001814  77.3718 282.7614 13.13473014195631
ONEWEB-0113             
1 48050U 21025J   25092.57069272  .00000120  00000+0  29030-3 0  9992
2 48050  87.8953  47.7733 0001940  83.2474 276.8876 13.13988834195740
ONEWEB-0112             
1 48051U 21025K   25092.57467915  .00000036  00000+0  64557-4 0  9999
2 48051  87.8952  47.7644 0001854  82.9100 277.2240 13.13470838195758
ONEWEB-0156             
1 48052U 21025L   25092.58313554 -.00000182  00000+0 -53398-3 0  9994
2 48052  87.8956  47.7705 0001767  82.9210 277.2120 13.13470297195730
ONEWEB-0161             
1 48053U 21025M   25092.40539782  .00000290  00000+0  75809-3 0  9998
2 48053  87.8957  47.8215 0001697  82.2529 277.8793 13.13471197195649
